[{"OBJECT_NAME":"STARLINK-33654","OBJECT_ID":"2025-070G","EPOCH":"2025-07-31T23:49:42.131136","MEAN_MOTION":15.27601605,"ECCENTRICITY":7.74e-5,"INCLINATION":42.9984,"RA_OF_ASC_NODE":66.1856,"ARG_OF_PERICENTER":271.5395,"MEAN_ANOMALY":88.5368,"EPHEMERIS_TYPE":0,"CLASSIFICATION_TYPE":"U","NORAD_CAT_ID":63466,"ELEMENT_SET_NO":999,"REV_AT_EPOCH":1921,"BSTAR":0.0012009,"MEAN_MOTION_DOT":0.00032954,"MEAN_MOTION_DDOT":0},{"OBJECT_NAME":"STARLINK-33697","OBJECT_ID":"2025-070H","EPOCH":"2025-07-31T22:19:14.553984","MEAN_MOTION":15.27600154,"ECCENTRICITY":0.000116,"INCLINATION":43.001,"RA_OF_ASC_NODE":66.5849,"ARG_OF_PERICENTER":243.1341,"MEAN_ANOMALY":116.9392,"EPHEMERIS_TYPE":0,"CLASSIFICATION_TYPE":"U","NORAD_CAT_ID":63467,"ELEMENT_SET_NO":999,"REV_AT_EPOCH":1921,"BSTAR":0.0010557,"MEAN_MOTION_DOT":0.0002892,"MEAN_MOTION_DDOT":0},{"OBJECT_NAME":"STARLINK-33720","OBJECT_ID":"2025-070J","EPOCH":"2025-07-31T23:55:15.115008","MEAN_MOTION":15.2758865,"ECCENTRICITY":8.63e-5,"INCLINATION":42.9995,"RA_OF_ASC_NODE":66.2125,"ARG_OF_PERICENTER":256.2767,"MEAN_ANOMALY":103.7988,"EPHEMERIS_TYPE":0,"CLASSIFICATION_TYPE":"U","NORAD_CAT_ID":63468,"ELEMENT_SET_NO":999,"REV_AT_EPOCH":1921,"BSTAR":0.00079149,"MEAN_MOTION_DOT":0.00021587,"MEAN_MOTION_DDOT":0},{"OBJECT_NAME":"STARLINK-33587","OBJECT_ID":"2025-070K","EPOCH":"2025-07-31T23:33:02.030400","MEAN_MOTION":15.2760975,"ECCENTRICITY":0.000239,"INCLINATION":43.0045,"RA_OF_ASC_NODE":66.0972,"ARG_OF_PERICENTER":274.2859,"MEAN_ANOMALY":85.7719,"EPHEMERIS_TYPE":0,"CLASSIFICATION_TYPE":"U","NORAD_CAT_ID":63469,"ELEMENT_SET_NO":999,"REV_AT_EPOCH":1921,"BSTAR":0.0012069,"MEAN_MOTION_DOT":0.0003313,"MEAN_MOTION_DDOT":0},{"OBJECT_NAME":"STARLINK-33637","OBJECT_ID":"2025-070L","EPOCH":"2025-07-31T23:01:47.754336","MEAN_MOTION":15.27613758,"ECCENTRICITY":8.62e-5,"INCLINATION":43.0019,"RA_OF_ASC_NODE":66.7931,"ARG_OF_PERICENTER":312.984,"MEAN_ANOMALY":47.0939,"EPHEMERIS_TYPE":0,"CLASSIFICATION_TYPE":"U","NORAD_CAT_ID":63470,"ELEMENT_SET_NO":999,"REV_AT_EPOCH":1920,"BSTAR":0.0013105,"MEAN_MOTION_DOT":0.00036013,"MEAN_MOTION_DDOT":0},{"OBJECT_NAME":"STARLINK-33744","OBJECT_ID":"2025-070M","EPOCH":"2025-08-01T00:13:44.668128","MEAN_MOTION":15.27608027,"ECCENTRICITY":0.0002053,"INCLINATION":43.0009,"RA_OF_ASC_NODE":66.3056,"ARG_OF_PERICENTER":276.7164,"MEAN_ANOMALY":83.3454,"EPHEMERIS_TYPE":0,"CLASSIFICATION_TYPE":"U","NORAD_CAT_ID":63471,"ELEMENT_SET_NO":999,"REV_AT_EPOCH":1920,"BSTAR":0.00093493,"MEAN_MOTION_DOT":0.00025577,"MEAN_MOTION_DDOT":0},{"OBJECT_NAME":"STARLINK-33766","OBJECT_ID":"2025-070N","EPOCH":"2025-07-31T22:52:32.757888","MEAN_MOTION":15.27601796,"ECCENTRICITY":0.0001215,"INCLINATION":42.999,"RA_OF_ASC_NODE":66.7398,"ARG_OF_PERICENTER":267.5768,"MEAN_ANOMALY":92.4945,"EPHEMERIS_TYPE":0,"CLASSIFICATION_TYPE":"U","NORAD_CAT_ID":63472,"ELEMENT_SET_NO":999,"REV_AT_EPOCH":1920,"BSTAR":0.0010124,"MEAN_MOTION_DOT":0.0002772,"MEAN_MOTION_DDOT":0},{"OBJECT_NAME":"STARLINK-33765","OBJECT_ID":"2025-070P","EPOCH":"2025-08-01T00:00:47.830176","MEAN_MOTION":15.2759495,"ECCENTRICITY":0.0001389,"INCLINATION":42.9998,"RA_OF_ASC_NODE":66.2403,"ARG_OF_PERICENTER":284.784,"MEAN_ANOMALY":75.2858,"EPHEMERIS_TYPE":0,"CLASSIFICATION_TYPE":"U","NORAD_CAT_ID":63473,"ELEMENT_SET_NO":999,"REV_AT_EPOCH":1921,"BSTAR":0.00082037,"MEAN_MOTION_DOT":0.00022392,"MEAN_MOTION_DDOT":0},{"OBJECT_NAME":"STARLINK-33735","OBJECT_ID":"2025-070Q","EPOCH":"2025-07-31T23:34:53.235840","MEAN_MOTION":15.27601507,"ECCENTRICITY":0.0001619,"INCLINATION":43.0068,"RA_OF_ASC_NODE":66.0989,"ARG_OF_PERICENTER":252.3616,"MEAN_ANOMALY":107.7059,"EPHEMERIS_TYPE":0,"CLASSIFICATION_TYPE":"U","NORAD_CAT_ID":63474,"ELEMENT_SET_NO":999,"REV_AT_EPOCH":1921,"BSTAR":0.0010643,"MEAN_MOTION_DOT":0.0002916,"MEAN_MOTION_DDOT":0},{"OBJECT_NAME":"STARLINK-33731","OBJECT_ID":"2025-070R","EPOCH":"2025-07-31T22:58:04.618560","MEAN_MOTION":15.27618774,"ECCENTRICITY":0.0001313,"INCLINATION":43.0003,"RA_OF_ASC_NODE":66.7707,"ARG_OF_PERICENTER":262.2906,"MEAN_ANOMALY":97.7796,"EPHEMERIS_TYPE":0,"CLASSIFICATION_TYPE":"U","NORAD_CAT_ID":63475,"ELEMENT_SET_NO":999,"REV_AT_EPOCH":1921,"BSTAR":0.0008376,"MEAN_MOTION_DOT":0.00022886,"MEAN_MOTION_DDOT":0},{"OBJECT_NAME":"STARLINK-33718","OBJECT_ID":"2025-070S","EPOCH":"2025-08-01T13:23:47.858784","MEAN_MOTION":15.27629738,"ECCENTRICITY":0.0001223,"INCLINATION":43.0012,"RA_OF_ASC_NODE":62.6798,"ARG_OF_PERICENTER":272.1679,"MEAN_ANOMALY":87.9032,"EPHEMERIS_TYPE":0,"CLASSIFICATION_TYPE":"U","NORAD_CAT_ID":63476,"ELEMENT_SET_NO":999,"REV_AT_EPOCH":1930,"BSTAR":0.0013132,"MEAN_MOTION_DOT":0.00036106,"MEAN_MOTION_DDOT":0},{"OBJECT_NAME":"STARLINK-33630","OBJECT_ID":"2025-070T","EPOCH":"2025-07-31T23:37:25.498560","MEAN_MOTION":15.27605086,"ECCENTRICITY":0.0002776,"INCLINATION":43.0033,"RA_OF_ASC_NODE":62.6318,"ARG_OF_PERICENTER":235.9883,"MEAN_ANOMALY":124.0706,"EPHEMERIS_TYPE":0,"CLASSIFICATION_TYPE":"U","NORAD_CAT_ID":63477,"ELEMENT_SET_NO":999,"REV_AT_EPOCH":1925,"BSTAR":0.0012617,"MEAN_MOTION_DOT":0.00034649,"MEAN_MOTION_DDOT":0},{"OBJECT_NAME":"STARLINK-33695","OBJECT_ID":"2025-070U","EPOCH":"2025-08-01T13:26:20.785056","MEAN_MOTION":15.27598449,"ECCENTRICITY":7.84e-5,"INCLINATION":42.9989,"RA_OF_ASC_NODE":59.2175,"ARG_OF_PERICENTER":2.2068,"MEAN_ANOMALY":357.8787,"EPHEMERIS_TYPE":0,"CLASSIFICATION_TYPE":"U","NORAD_CAT_ID":63478,"ELEMENT_SET_NO":999,"REV_AT_EPOCH":1934,"BSTAR":0.001023,"MEAN_MOTION_DOT":0.00028011,"MEAN_MOTION_DDOT":0},{"OBJECT_NAME":"STARLINK-33713","OBJECT_ID":"2025-070V","EPOCH":"2025-07-31T23:24:28.832544","MEAN_MOTION":15.27600506,"ECCENTRICITY":0.0001535,"INCLINATION":43.0071,"RA_OF_ASC_NODE":62.562,"ARG_OF_PERICENTER":254.9015,"MEAN_ANOMALY":105.1667,"EPHEMERIS_TYPE":0,"CLASSIFICATION_TYPE":"U","NORAD_CAT_ID":63479,"ELEMENT_SET_NO":999,"REV_AT_EPOCH":1925,"BSTAR":0.0011202,"MEAN_MOTION_DOT":0.00030711,"MEAN_MOTION_DDOT":0},{"OBJECT_NAME":"STARLINK-33721","OBJECT_ID":"2025-070W","EPOCH":"2025-07-31T23:28:12.056448","MEAN_MOTION":15.27589498,"ECCENTRICITY":0.0001491,"INCLINATION":43.0029,"RA_OF_ASC_NODE":62.5904,"ARG_OF_PERICENTER":292.038,"MEAN_ANOMALY":68.0313,"EPHEMERIS_TYPE":0,"CLASSIFICATION_TYPE":"U","NORAD_CAT_ID":63480,"ELEMENT_SET_NO":999,"REV_AT_EPOCH":1925,"BSTAR":0.001185,"MEAN_MOTION_DOT":0.000325,"MEAN_MOTION_DDOT":0},{"OBJECT_NAME":"STARLINK-33639","OBJECT_ID":"2025-070X","EPOCH":"2025-07-31T00:23:35.310624","MEAN_MOTION":15.27606028,"ECCENTRICITY":0.0001262,"INCLINATION":43.0016,"RA_OF_ASC_NODE":68.268,"ARG_OF_PERICENTER":276.5865,"MEAN_ANOMALY":83.4843,"EPHEMERIS_TYPE":0,"CLASSIFICATION_TYPE":"U","NORAD_CAT_ID":63481,"ELEMENT_SET_NO":999,"REV_AT_EPOCH":1911,"BSTAR":0.0011278,"MEAN_MOTION_DOT":0.00030927,"MEAN_MOTION_DDOT":0},{"OBJECT_NAME":"STARLINK-33667","OBJECT_ID":"2025-070Y","EPOCH":"2025-07-31T22:18:57.610080","MEAN_MOTION":15.4512997,"ECCENTRICITY":0.0002251,"INCLINATION":43.0005,"RA_OF_ASC_NODE":35.8527,"ARG_OF_PERICENTER":290.1628,"MEAN_ANOMALY":69.8987,"EPHEMERIS_TYPE":0,"CLASSIFICATION_TYPE":"U","NORAD_CAT_ID":63482,"ELEMENT_SET_NO":999,"REV_AT_EPOCH":1956,"BSTAR":0.0013577,"MEAN_MOTION_DOT":0.00066099,"MEAN_MOTION_DDOT":0}]
