STARLINK-33654          
1 63466U 25070G   25212.99284874  .00032954  00000+0  12009-2 0  9998
2 63466  42.9984  66.1856 0000774 271.5395  88.5368 15.27601605 19219
STARLINK-33697          
1 63467U 25070H   25212.93002956  .00028920  00000+0  10557-2 0  9996
2 63467  43.0010  66.5849 0001160 243.1341 116.9392 15.27600154 19215
STARLINK-33720          
1 63468U 25070J   25212.99670272  .00021587  00000+0  79149-3 0  9990
2 63468  42.9995  66.2125 0000863 256.2767 103.7988 15.27588650 19217
STARLINK-33587          
1 63469U 25070K   25212.98127350  .00033130  00000+0  12069-2 0  9998
2 63469  43.0045  66.0972 0002390 274.2859  85.7719 15.27609750 19219
STARLINK-33637          
1 63470U 25070L   25212.95958049  .00036013  00000+0  13105-2 0  9999
2 63470  43.0019  66.7931 0000862 312.9840  47.0939 15.27613758 19203
STARLINK-33744          
1 63471U 25070M   25213.00954477  .00025577  00000+0  93493-3 0  9990
2 63471  43.0009  66.3056 0002053 276.7164  83.3454 15.27608027 19205
STARLINK-33766          
1 63472U 25070N   25212.95315692  .00027720  00000+0  10124-2 0  9995
2 63472  42.9990  66.7398 0001215 267.5768  92.4945 15.27601796 19205
STARLINK-33765          
1 63473U 25070P   25213.00055359  .00022392  00000+0  82037-3 0  9997
2 63473  42.9998  66.2403 0001389 284.7840  75.2858 15.27594950 19216
STARLINK-33735          
1 63474U 25070Q   25212.98256060  .00029160  00000+0  10643-2 0  9999
2 63474  43.0068  66.0989 0001619 252.3616 107.7059 15.27601507 19213
STARLINK-33731          
1 63475U 25070R   25212.95699790  .00022886  00000+0  83760-3 0  9997
2 63475  43.0003  66.7707 0001313 262.2906  97.7796 15.27618774 19211
STARLINK-33718          
1 63476U 25070S   25213.55819281  .00036106  00000+0  13132-2 0  9999
2 63476  43.0012  62.6798 0001223 272.1679  87.9032 15.27629738 19300
STARLINK-33630          
1 63477U 25070T   25212.98432290  .00034649  00000+0  12617-2 0  9994
2 63477  43.0033  62.6318 0002776 235.9883 124.0706 15.27605086 19255
STARLINK-33695          
1 63478U 25070U   25213.55996279  .00028011  00000+0  10230-2 0  9996
2 63478  42.9989  59.2175 0000784   2.2068 357.8787 15.27598449 19343
STARLINK-33713          
1 63479U 25070V   25212.97533371  .00030711  00000+0  11202-2 0  9992
2 63479  43.0071  62.5620 0001535 254.9015 105.1667 15.27600506 19252
STARLINK-33721          
1 63480U 25070W   25212.97791732  .00032500  00000+0  11850-2 0  9998
2 63480  43.0029  62.5904 0001491 292.0380  68.0313 15.27589498 19252
STARLINK-33639          
1 63481U 25070X   25212.01638091  .00030927  00000+0  11278-2 0  9997
2 63481  43.0016  68.2680 0001262 276.5865  83.4843 15.27606028 19117
STARLINK-33667          
1 63482U 25070Y   25212.92983345  .00066099  00000+0  13577-2 0  9996
2 63482  43.0005  35.8527 0002251 290.1628  69.8987 15.45129970 19566
